CCSDS_OMM_VERS,COMMENT,CREATION_DATE,ORIGINATOR,OBJECT_NAME,OBJECT_ID,CENTER_NAME,REF_FRAME,TIME_SYSTEM,MEAN_ELEMENT_THEORY,EPOCH,MEAN_MOTION,ECCENTRICITY,INCLINATION,RA_OF_ASC_NODE,ARG_OF_PERICENTER,MEAN_ANOMALY,EPHEMERIS_TYPE,CLASSIFICATION_TYPE,NORAD_CAT_ID,ELEMENT_SET_NO,REV_AT_EPOCH,BSTAR,MEAN_MOTION_DOT,MEAN_MOTION_DDOT,SEMIMAJOR_AXIS,PERIOD,APOAPSIS,PERIAPSIS,OBJECT_TYPE,RCS_SIZE,COUNTRY_CODE,LAUNCH_DATE,SITE,DECAY_DATE,FILE,GP_ID,TLE_LINE0,TLE_LINE1,TLE_LINE2
2,GENERATED VIA SPACE-TRACK.ORG API,2019-04-02T14:36:16,18 SPCS,GALILEO-FM2,2011-060B,EARTH,TEME,UTC,SGP4,2019-04-02T11:23:36.146688,1.70475828,0.0006563,56.3284,53.4784,314.7409,226.2131,0,U,37847,999,4636,0.0,-4.4e-07,0,29600.108,844.694,23241.4,23202.546,PAYLOAD,LARGE,ESA,2011-10-21,FRGUI,,2436203,128243034,0 GALILEO-FM2,1 37847U 11060B   19092.47472392 -.00000044  00000-0  00000+0 0  9994,2 37847  56.3284  53.4784 0006563 314.7409 226.2131  1.70475828 46366
2,GENERATED VIA SPACE-TRACK.ORG API,2019-04-03T04:44:41,18 SPCS,GALILEO-FM2,2011-060B,EARTH,TEME,UTC,SGP4,2019-04-02T11:23:36.146688,1.70475828,0.0006563,56.3284,53.4784,314.7409,226.2131,0,U,37847,999,4636,0.0,-4.4e-07,0,29600.108,844.694,23241.4,23202.546,PAYLOAD,LARGE,ESA,2011-10-21,FRGUI,,2436542,128279157,0 GALILEO-FM2,1 37847U 11060B   19092.47472392 -.00000044 +00000-0 +00000-0 0  9995,2 37847 056.3284 053.4784 0006563 314.7409 226.2131 01.70475828046366
2,GENERATED VIA SPACE-TRACK.ORG API,2019-04-04T22:24:14,18 SPCS,GALILEO-FM2,2011-060B,EARTH,TEME,UTC,SGP4,2019-04-04T19:38:30.371712,1.7047579,0.0006526,56.3297,53.4137,315.4541,223.8759,0,U,37847,999,4640,0.0,-4e-07,0,29600.112,844.694,23241.294,23202.66,PAYLOAD,LARGE,ESA,2011-10-21,FRGUI,,2437988,128407614,0 GALILEO-FM2,1 37847U 11060B   19094.81840708 -.00000040  00000-0  00000+0 0  9990,2 37847  56.3297  53.4137 0006526 315.4541 223.8759  1.70475790 46408
2,GENERATED VIA SPACE-TRACK.ORG API,2019-04-05T22:08:18,18 SPCS,GALILEO-FM2,2011-060B,EARTH,TEME,UTC,SGP4,2019-04-05T11:22:28.794432,1.70475778,0.0006518,56.3302,53.3956,315.6039,266.0456,0,U,37847,999,4629,0.0,-3.9e-07,0,29600.114,844.694,23241.272,23202.685,PAYLOAD,LARGE,ESA,2011-10-21,FRGUI,,2438682,128470334,0 GALILEO-FM2,1 37847U 11060B   19095.47394438 -.00000039 +00000-0 +00000-0 0  9996,2 37847 056.3302 053.3956 0006518 315.6039 266.0456 01.70475778046294
2,GENERATED VIA SPACE-TRACK.ORG API,2019-04-09T14:36:16,18 SPCS,GALILEO-FM2,2011-060B,EARTH,TEME,UTC,SGP4,2019-04-09T12:08:49.521408,1.7047565,0.0006464,56.3329,53.2841,316.564,219.7357,0,U,37847,999,4648,0.0,-3.4e-07,0,29600.129,844.695,23241.127,23202.86,PAYLOAD,LARGE,ESA,2011-10-21,FRGUI,,2440466,128702446,0 GALILEO-FM2,1 37847U 11060B   19099.50612872 -.00000034  00000-0  00000+0 0  9993,2 37847  56.3329  53.2841 0006464 316.5640 219.7357  1.70475650 46488
2,GENERATED VIA SPACE-TRACK.ORG API,2019-04-10T05:02:16,18 SPCS,GALILEO-FM2,2011-060B,EARTH,TEME,UTC,SGP4,2019-04-09T19:23:02.975712,1.70475638,0.0006461,56.3331,53.2758,316.6557,44.7093,0,U,37847,999,4637,0.0,-3.4e-07,0,29600.13,844.695,23241.12,23202.87,PAYLOAD,LARGE,ESA,2011-10-21,FRGUI,,2440634,128757073,0 GALILEO-FM2,1 37847U 11060B   19099.80767333 -.00000034 +00000-0 +00000-0 0  9990,2 37847 056.3331 053.2758 0006461 316.6557 044.7093 01.70475638046370
2,GENERATED VIA SPACE-TRACK.ORG API,2019-04-11T04:16:23,18 SPCS,GALILEO-FM2,2011-060B,EARTH,TEME,UTC,SGP4,2019-04-10T02:30:42.717312,1.70475632,0.0006457,56.3333,53.2676,316.7051,226.9285,0,U,37847,999,4637,0.0,-3.4e-07,0,29600.131,844.695,23241.108,23202.883,PAYLOAD,LARGE,ESA,2011-10-21,FRGUI,,2441091,128823115,0 GALILEO-FM2,1 37847U 11060B   19100.10466108 -.00000034 +00000-0 +00000-0 0  9992,2 37847 056.3333 053.2676 0006457 316.7051 226.9285 01.70475632046377
2,GENERATED VIA SPACE-TRACK.ORG API,2019-04-13T14:30:17,18 SPCS,GALILEO-FM2,2011-060B,EARTH,TEME,UTC,SGP4,2019-04-13T04:05:02.639616,1.70475559,0.0006413,56.3356,53.1828,317.4339,307.5768,0,U,37847,999,4654,0.0,-4e-07,0,29600.139,844.695,23240.987,23203.022,PAYLOAD,LARGE,ESA,2011-10-21,FRGUI,,2442455,129007579,0 GALILEO-FM2,1 37847U 11060B   19103.17016944 -.00000040  00000-0  00000+0 0  9997,2 37847  56.3356  53.1828 0006413 317.4339 307.5768  1.70475559 46548
2,GENERATED VIA SPACE-TRACK.ORG API,2019-04-15T03:45:12,18 SPCS,GALILEO-FM2,2011-060B,EARTH,TEME,UTC,SGP4,2019-04-14T19:07:35.576256,1.70475548,0.000637,56.3368,53.1378,317.8912,225.5079,0,U,37847,999,4645,0.0,-4.9e-07,0,29600.14,844.695,23240.861,23203.15,PAYLOAD,LARGE,ESA,2011-10-21,FRGUI,,2443160,129129875,0 GALILEO-FM2,1 37847U 11060B   19104.79693954 -.00000049 +00000-0 +00000-0 0  9998,2 37847 056.3368 053.1378 0006370 317.8912 225.5079 01.70475548046456
2,GENERATED VIA SPACE-TRACK.ORG API,2019-04-15T14:30:16,18 SPCS,GALILEO-FM2,2011-060B,EARTH,TEME,UTC,SGP4,2019-04-15T08:52:48.840672,1.7047555,0.0006358,56.3372,53.1219,318.0258,217.0806,0,U,37847,999,4658,0.0,-5.3e-07,0,29600.14,844.695,23240.825,23203.185,PAYLOAD,LARGE,ESA,2011-10-21,FRGUI,,2443430,129140643,0 GALILEO-FM2,1 37847U 11060B   19105.37000973 -.00000053  00000-0  00000+0 0  9990,2 37847  56.3372  53.1219 0006358 318.0258 217.0806  1.70475550 46588
2,GENERATED VIA SPACE-TRACK.ORG API,2019-04-17T04:53:53,18 SPCS,GALILEO-FM2,2011-060B,EARTH,TEME,UTC,SGP4,2019-04-15T23:14:14.100000,1.70475553,0.0006344,56.3376,53.1053,318.17,224.0718,0,U,37847,999,4647,0.0,-5.7e-07,0,29600.14,844.695,23240.783,23203.226,PAYLOAD,LARGE,ESA,2011-10-21,FRGUI,,2443873,129219741,0 GALILEO-FM2,1 37847U 11060B   19105.96821875 -.00000057 +00000-0 +00000-0 0  9992,2 37847 056.3376 053.1053 0006344 318.1700 224.0718 01.70475553046477
2,GENERATED VIA SPACE-TRACK.ORG API,2019-04-18T05:09:28,18 SPCS,GALILEO-FM2,2011-060B,EARTH,TEME,UTC,SGP4,2019-04-17T03:34:42.623616,1.70475565,0.0006318,56.3384,53.0727,318.4586,228.5214,0,U,37847,999,4649,0.0,-6.4e-07,0,29600.138,844.695,23240.705,23203.302,PAYLOAD,LARGE,ESA,2011-10-21,FRGUI,,2443878,129295078,0 GALILEO-FM2,1 37847U 11060B   19107.14910444 -.00000064 +00000-0 +00000-0 0  9993,2 37847 056.3384 053.0727 0006318 318.4586 228.5214 01.70475565046494
2,GENERATED VIA SPACE-TRACK.ORG API,2019-04-19T05:38:40,18 SPCS,GALILEO-FM2,2011-060B,EARTH,TEME,UTC,SGP4,2019-04-18T04:10:37.803360,1.70475582,0.0006304,56.3392,53.0442,318.7455,137.2679,0,U,37847,999,4663,0.0,-6.9e-07,0,29600.136,844.695,23240.661,23203.342,PAYLOAD,LARGE,ESA,2011-10-21,FRGUI,,2444227,129339729,0 GALILEO-FM2,1 37847U 11060B   19108.17404865 -.00000069 +00000-0 +00000-0 0  9997,2 37847 056.3392 053.0442 0006304 318.7455 137.2679 01.70475582046636
2,GENERATED VIA SPACE-TRACK.ORG API,2019-04-20T05:12:56,18 SPCS,GALILEO-FM2,2011-060B,EARTH,TEME,UTC,SGP4,2019-04-19T11:24:49.133952,1.70475613,0.0006275,56.3401,53.0082,319.0609,215.7269,0,U,37847,999,4653,0.0,-7.3e-07,0,29600.133,844.695,23240.572,23203.424,PAYLOAD,LARGE,ESA,2011-10-21,FRGUI,,2445379,129419518,0 GALILEO-FM2,1 37847U 11060B   19109.47556868 -.00000073 +00000-0 +00000-0 0  9997,2 37847 056.3401 053.0082 0006275 319.0609 215.7269 01.70475613046530
2,GENERATED VIA SPACE-TRACK.ORG API,2019-04-21T22:36:17,18 SPCS,GALILEO-FM2,2011-060B,EARTH,TEME,UTC,SGP4,2019-04-21T19:52:23.183904,1.70475685,0.0006219,56.3418,52.9431,319.7218,218.8387,0,U,37847,999,4669,0.0,-7.4e-07,0,29600.125,844.695,23240.398,23203.581,PAYLOAD,LARGE,ESA,2011-10-21,FRGUI,,2447369,129541557,0 GALILEO-FM2,1 37847U 11060B   19111.82804611 -.00000074  00000-0  00000+0 0  9991,2 37847  56.3418  52.9431 0006219 319.7218 218.8387  1.70475685 46696
2,GENERATED VIA SPACE-TRACK.ORG API,2019-04-24T18:35:02,18 SPCS,GALILEO-FM2,2011-060B,EARTH,TEME,UTC,SGP4,2019-04-23T18:37:57.502272,1.70475748,0.0006165,56.3431,52.8893,320.2653,334.023,0,U,37847,999,4660,0.0,-7.2e-07,0,29600.117,844.694,23240.231,23203.734,PAYLOAD,LARGE,ESA,2011-10-21,FRGUI,,2450161,129743581,0 GALILEO-FM2,1 37847U 11060B   19113.77635998 -.00000072 +00000-0 +00000-0 0  9996,2 37847 056.3431 052.8893 0006165 320.2653 334.0230 01.70475748046601
2,GENERATED VIA SPACE-TRACK.ORG API,2019-04-24T06:48:14,18 SPCS,GALILEO-FM2,2011-060B,EARTH,TEME,UTC,SGP4,2019-04-24T04:07:15.895200,1.70475761,0.0006155,56.3434,52.8784,320.4091,216.5162,0,U,37847,999,4673,0.0,-7.2e-07,0,29600.116,844.694,23240.2,23203.762,PAYLOAD,LARGE,ESA,2011-10-21,FRGUI,,2449806,129721610,0 GALILEO-FM2,1 37847U 11060B   19114.17171175 -.00000072  00000-0  00000+0 0  9992,2 37847  56.3434  52.8784 0006155 320.4091 216.5162  1.70475761 46737
2,GENERATED VIA SPACE-TRACK.ORG API,2019-04-26T22:42:17,18 SPCS,GALILEO-FM2,2011-060B,EARTH,TEME,UTC,SGP4,2019-04-26T12:45:42.736032,1.70475818,0.0006092,56.345,52.8131,321.0431,224.2924,0,U,37847,999,4677,0.0,-6.9e-07,0,29600.109,844.694,23240.007,23203.942,PAYLOAD,LARGE,ESA,2011-10-21,FRGUI,,2452633,129927004,0 GALILEO-FM2,1 37847U 11060B   19116.53174463 -.00000069  00000-0  00000+0 0  9993,2 37847  56.3450  52.8131 0006092 321.0431 224.2924  1.70475818 46775
2,GENERATED VIA SPACE-TRACK.ORG API,2019-04-28T03:50:21,18 SPCS,GALILEO-FM2,2011-060B,EARTH,TEME,UTC,SGP4,2019-04-27T02:42:42.639264,1.70475827,0.0006079,56.3454,52.797,321.1944,220.8678,0,U,37847,999,4666,0.0,-6.9e-07,0,29600.108,844.694,23239.967,23203.979,PAYLOAD,LARGE,ESA,2011-10-21,FRGUI,,2453736,130002573,0 GALILEO-FM2,1 37847U 11060B   19117.11299351 -.00000069 +00000-0 +00000-0 0  9993,2 37847 056.3454 052.7970 0006079 321.1944 220.8678 01.70475827046660
2,GENERATED VIA SPACE-TRACK.ORG API,2019-04-29T03:50:06,18 SPCS,GALILEO-FM2,2011-060B,EARTH,TEME,UTC,SGP4,2019-04-28T20:51:22.833792,1.70475839,0.0006042,56.3466,52.7485,321.707,218.0684,0,U,37847,999,4669,0.0,-6.7e-07,0,29600.107,844.694,23239.856,23204.087,PAYLOAD,LARGE,ESA,2011-10-21,FRGUI,,2454712,130060987,0 GALILEO-FM2,1 37847U 11060B   19118.86901428 -.00000067 +00000-0 +00000-0 0  9999,2 37847 056.3466 052.7485 0006042 321.7070 218.0684 01.70475839046692
